      2.10          N: GNSS NAV DATA                        RINEX VERSION / TYPE
fic2rin                                 06/07/2022 00:17:42 PGM / RUN BY / DATE
                                                            END OF HEADER
8  22  6  6  1 59 44.0 -.709700398147D-04 -.159161572810D-11  .000000000000D+00
     .500000000000D+01  .525312500000D+02  .414910139816D-08  .186157399661D+01
     .276602804661D-05  .744278193451D-02  .871904194355D-05  .515377719688D+04
     .935840000000D+05 -.633299350739D-07  .128800294933D+01  .484287738800D-07
     .963323686161D+00  .212375000000D+03  .172955195684D+00 -.791854412486D-08
    -.181078971237D-09  .100000000000D+01  .221300000000D+04  .000000000000D+00
     .240000000000D+01  .000000000000D+00  .512227416039D-08  .500000000000D+01
     .864000000000D+05  .400000000000D+01
27 22  6  6 15 59 44.0  .212841201574D-03  .397903932026D-11  .000000000000D+00
     .000000000000D+00  .489687500000D+02  .417910264783D-08  .297992146878D+01
     .237487256527D-05  .105441791238D-01  .881217420101D-05  .515366103745D+04
     .143984000000D+06 -.894069671631D-07  .130795626101D+01 -.173225998878D-06
     .972050855626D+00  .215125000000D+03  .686934794346D+00 -.769496338325D-08
    -.180721813503D-09  .100000000000D+01  .221300000000D+04  .000000000000D+00
     .240000000000D+01  .000000000000D+00  .186264514923D-08  .000000000000D+00
     .141240000000D+06  .400000000000D+01
24 22  6  6 15 59 44.0  .226492527872D-03 -.795807864051D-11  .000000000000D+00
     .100000000000D+02  .245625000000D+02  .521414576153D-08  .107359463276D+01
     .120326876640D-05  .125168388477D-01  .797212123871D-05  .515368441772D+04
     .143984000000D+06 -.158324837685D-06 -.864435854355D+00  .912696123123D-07
     .934120739913D+00  .212156250000D+03  .816389112992D+00 -.849535386559D-08
     .128933942045D-09  .100000000000D+01  .221300000000D+04  .000000000000D+00
     .240000000000D+01  .000000000000D+00  .279396772385D-08  .100000000000D+02
     .141480000000D+06  .400000000000D+01
19 22  6  6 15 59 44.0  .167179852724D-03  .500222085975D-11  .000000000000D+00
     .600000000000D+01  .341562500000D+02  .422910473062D-08 -.997383008411D+00
     .183843076229D-05  .927504780702D-02  .854954123497D-05  .515370238113D+04
     .143984000000D+06 -.128522515297D-06  .141602787559D+01 -.670552253723D-07
     .977351654437D+00  .226593750000D+03  .207965986687D+01 -.799497587998D-08
    -.492877673191D-10  .100000000000D+01  .221300000000D+04  .000000000000D+00
     .240000000000D+01  .000000000000D+00 -.158324837685D-07  .600000000000D+01
     .143850000000D+06  .400000000000D+01
10 22  6  6 17 59 44.0 -.444405246526D-03 -.152340362547D-10  .000000000000D+00
     .100000000000D+02 -.625000000000D+02  .438089676765D-08 -.211783164202D+00
    -.338256359100D-05  .761658744887D-02  .507012009621D-05  .515368338013D+04
     .151184000000D+06 -.745058059692D-08 -.288209084398D+01  .745058059692D-07
     .974058274740D+00  .286187500000D+03 -.249666735421D+01 -.820891336276D-08
    -.218223375594D-09  .100000000000D+01  .221300000000D+04  .000000000000D+00
     .240000000000D+01  .000000000000D+00  .232830643654D-08  .100000000000D+02
     .144000000000D+06  .400000000000D+01
13 22  6  6 17 59 44.0  .325132161379D-03  .693489710102D-11  .000000000000D+00
     .500000000000D+01 -.481250000000D+02  .407409827397D-08 -.270180325857D+01
    -.239163637161D-05  .597313046455D-02  .940822064877D-05  .515367609978D+04
     .151184000000D+06 -.260770320892D-07 -.169722832691D+01  .931322574615D-08
     .968400019211D+00  .202718750000D+03  .915409378384D+00 -.760781689611D-08
     .121433629627D-09  .100000000000D+01  .221300000000D+04  .000000000000D+00
     .240000000000D+01  .000000000000D+00 -.116415321827D-07  .500000000000D+01
     .144000000000D+06  .400000000000D+01
27 22  6  6 17 59 44.0  .212870072573D-03  .397903932026D-11  .000000000000D+00
     .300000000000D+01  .424062500000D+02  .427124934325D-08 -.225317967286D+01
     .193715095520D-05  .105455492157D-01  .812113285065D-05  .515365794563D+04
     .151184000000D+06  .182539224625D-06  .130789929937D+01 -.147148966789D-06
     .972049809639D+00  .228062500000D+03  .687038032475D+00 -.781782564382D-08
     .821462788651D-11  .100000000000D+01  .221300000000D+04  .000000000000D+00
     .240000000000D+01  .000000000000D+00  .186264514923D-08  .300000000000D+01
     .144000000000D+06  .400000000000D+01
24 22  6  6 17 59 44.0  .226434785873D-03 -.795807864051D-11  .000000000000D+00
     .110000000000D+02  .200000000000D+02  .503913847177D-08  .212372665767D+01
     .972300767899D-06  .125170595711D-01  .807642936707D-05  .515368549156D+04
     .151184000000D+06 -.212341547012D-06 -.864497368597D+00 -.251457095146D-06
     .934123121543D+00  .209343750000D+03  .816435914667D+00 -.822712840721D-08
     .276082928534D-09  .100000000000D+01  .221300000000D+04  .000000000000D+00
     .240000000000D+01  .000000000000D+00  .279396772385D-08  .110000000000D+02
     .144000000000D+06  .400000000000D+01
19 22  6  6 17 59 44.0  .167216174304D-03  .500222085975D-11  .000000000000D+00
     .430000000000D+02  .320000000000D+02  .418017412103D-08  .528400143930D-01
     .171177089214D-05  .927639775909D-02  .901520252228D-05  .515370517540D+04
     .151184000000D+06 -.689178705215D-07  .141597039607D+01 -.104308128357D-06
     .977351247745D+00  .216250000000D+03  .207959713401D+01 -.801211945122D-08
    -.785747015231D-10  .100000000000D+01  .221300000000D+04  .000000000000D+00
     .240000000000D+01  .000000000000D+00 -.158324837685D-07  .430000000000D+02
     .144000000000D+06  .400000000000D+01
28 22  6  6 17 59 44.0  .343413092196D-03 -.807176547823D-11  .000000000000D+00
     .150000000000D+02  .209375000000D+02  .445804283824D-08 -.179904359970D+01
     .150687992573D-05  .165441310965D-01  .682100653648D-05  .515367388725D+04
     .151184000000D+06 -.651925802231D-07  .355029413680D+00  .413507223129D-06
     .968457169568D+00  .252968750000D+03 -.127731517266D+01 -.793675916931D-08
    -.136791412197D-09  .100000000000D+01  .221300000000D+04  .000000000000D+00
     .240000000000D+01  .630000000000D+02 -.111758708954D-07  .150000000000D+02
     .144000000000D+06  .400000000000D+01
2  22  6  6 18  0  0.0 -.652895309031D-03  .227373675443D-12  .000000000000D+00
     .520000000000D+02  .318125000000D+02  .443447042778D-08  .197189683730D+01
     .144541263580D-05  .204209918156D-01  .528432428837D-05  .515367505646D+04
     .151200000000D+06  .284984707832D-06  .227865970325D+01 -.191852450371D-06
     .965966121441D+00  .272156250000D+03 -.141488127697D+01 -.784211236974D-08
    -.321441960776D-11  .100000000000D+01  .221300000000D+04  .000000000000D+00
     .240000000000D+01  .000000000000D+00 -.176951289177D-07  .520000000000D+02
     .144000000000D+06  .400000000000D+01
1  22  6  6 18  0  0.0  .346848741174D-03 -.795807864051D-11  .000000000000D+00
     .490000000000D+02  .390937500000D+02  .411374278247D-08  .181055652360D+01
     .184401869774D-05  .119678759947D-01  .577606260777D-05  .515366518784D+04
     .151200000000D+06 -.279396772385D-06  .237025697748D+01 -.145286321640D-06
     .987892267393D+00  .284718750000D+03  .915437204548D+00 -.797033199632D-08
     .166078346401D-09  .100000000000D+01  .221300000000D+04  .000000000000D+00
     .240000000000D+01  .000000000000D+00  .512227416039D-08  .490000000000D+02
     .144000000000D+06  .400000000000D+01
3  22  6  6 18  0  0.0 -.270018819720D-03 -.122781784739D-10  .000000000000D+00
     .220000000000D+02 -.589687500000D+02  .438732560686D-08  .706681653179D+00
    -.296905636787D-05  .424984353594D-02  .518746674061D-05  .515361463737D+04
     .151200000000D+06 -.540167093277D-07 -.287934354527D+01  .726431608200D-07
     .974254011716D+00  .286062500000D+03  .965804174946D+00 -.818891252965D-08
    -.196793911542D-09  .100000000000D+01  .221300000000D+04  .000000000000D+00
     .340000000000D+01  .000000000000D+00  .186264514923D-08  .220000000000D+02
     .144000000000D+06  .400000000000D+01
5  22  6  6 18  0  0.0 -.845701433718D-04 -.136424205266D-11  .000000000000D+00
     .730000000000D+02 -.535312500000D+02  .457054752451D-08 -.182520397624D+01
    -.274926424026D-05  .603148119990D-02  .444427132607D-05  .515373348236D+04
     .151200000000D+06  .139698386192D-06 -.292120879358D+01 -.242143869400D-07
     .961277834726D+00  .294281250000D+03  .103196957804D+01 -.811640950961D-08
    -.964325882329D-10  .100000000000D+01  .221300000000D+04  .000000000000D+00
     .240000000000D+01  .000000000000D+00 -.111758708954D-07  .730000000000D+02
     .144000000000D+06  .400000000000D+01
